<?xml version="1.0" encoding="UTF-8"?>
<gpx version="1.1" creator="balades-en-famille">
  <trk>
    <name>Boucle VTT</name>
    <trkseg>
      <trkpt lat="50.01000" lon="5.50000"><ele>250</ele></trkpt>
      <trkpt lat="50.01300" lon="5.50380"><ele>302</ele></trkpt>
      <trkpt lat="50.01600" lon="5.50760"><ele>352</ele></trkpt>
      <trkpt lat="50.01900" lon="5.51140"><ele>395</ele></trkpt>
      <trkpt lat="50.02200" lon="5.51520"><ele>431</ele></trkpt>
      <trkpt lat="50.02500" lon="5.51900"><ele>455</ele></trkpt>
      <trkpt lat="50.02800" lon="5.52280"><ele>468</ele></trkpt>
      <trkpt lat="50.03100" lon="5.52660"><ele>468</ele></trkpt>
      <trkpt lat="50.03400" lon="5.53040"><ele>455</ele></trkpt>
      <trkpt lat="50.03700" lon="5.53420"><ele>431</ele></trkpt>
      <trkpt lat="50.04000" lon="5.53800"><ele>395</ele></trkpt>
      <trkpt lat="50.04300" lon="5.54180"><ele>352</ele></trkpt>
      <trkpt lat="50.04600" lon="5.54560"><ele>302</ele></trkpt>
      <trkpt lat="50.04900" lon="5.54940"><ele>250</ele></trkpt>
    </trkseg>
  </trk>
</gpx>
