<?xml version="1.0" encoding="UTF-8"?>
<gpx version="1.1" creator="mes-balades-velo">
  <trk>
    <name>Boucle d'exemple - Tervuren</name>
    <trkseg>
      <trkpt lat="50.8236" lon="4.5117"><ele>62</ele></trkpt>
      <trkpt lat="50.8258" lon="4.5145"><ele>66</ele></trkpt>
      <trkpt lat="50.8291" lon="4.5189"><ele>71</ele></trkpt>
      <trkpt lat="50.8312" lon="4.5241"><ele>78</ele></trkpt>
      <trkpt lat="50.8298" lon="4.5298"><ele>74</ele></trkpt>
      <trkpt lat="50.8261" lon="4.5312"><ele>69</ele></trkpt>
      <trkpt lat="50.8219" lon="4.5287"><ele>63</ele></trkpt>
      <trkpt lat="50.8188" lon="4.5231"><ele>58</ele></trkpt>
      <trkpt lat="50.8172" lon="4.5169"><ele>55</ele></trkpt>
      <trkpt lat="50.8195" lon="4.5121"><ele>57</ele></trkpt>
      <trkpt lat="50.8221" lon="4.5098"><ele>60</ele></trkpt>
      <trkpt lat="50.8236" lon="4.5117"><ele>62</ele></trkpt>
    </trkseg>
  </trk>
</gpx>
