<?xml version="1.0" encoding="UTF-8"?>
<gpx version="1.1" creator="mes-balades-velo">
  <trk>
    <name>Jour 1</name>
    <trkseg>
      <trkpt lat="50.26000" lon="5.91000"><ele>300</ele></trkpt>
      <trkpt lat="50.26350" lon="5.91420"><ele>350</ele></trkpt>
      <trkpt lat="50.26700" lon="5.91840"><ele>397</ele></trkpt>
      <trkpt lat="50.27050" lon="5.92260"><ele>436</ele></trkpt>
      <trkpt lat="50.27400" lon="5.92680"><ele>463</ele></trkpt>
      <trkpt lat="50.27750" lon="5.93100"><ele>478</ele></trkpt>
      <trkpt lat="50.28100" lon="5.93520"><ele>478</ele></trkpt>
      <trkpt lat="50.28450" lon="5.93940"><ele>463</ele></trkpt>
      <trkpt lat="50.28800" lon="5.94360"><ele>436</ele></trkpt>
      <trkpt lat="50.29150" lon="5.94780"><ele>397</ele></trkpt>
      <trkpt lat="50.29500" lon="5.95200"><ele>350</ele></trkpt>
      <trkpt lat="50.29850" lon="5.95620"><ele>300</ele></trkpt>
    </trkseg>
  </trk>
</gpx>
